UNKNOWN                 
1 81014U          20033.86627614  .00026308  00000+0  23580-2 0  9990
2 81014  51.3426 210.7149 2803916 243.4158  85.3402  9.65458585216418
UNKNOWN                 
1 81036U          20033.96531951  .00000613  00000+0  11224-2 0  9996
2 81036  65.9998 298.6994 2738429 320.5469  22.4394  9.12961493205989
UNKNOWN                 
1 81037U          20033.77422704  .00000838  00000+0  98181-4 0  9999
2 81037  62.2057  57.8739 0233762 192.7498 166.7609 14.75926595891315
UNKNOWN                 
1 81052U          20032.17225245 -.00000052  00000+0  16884-4 0  9999
2 81052  65.7795 260.2320 0656925 252.4733 100.3544 13.60119748307604
UNKNOWN                 
1 81067U          20034.19810284  .00001292  00000+0  70776-3 0  9997
2 81067  99.1046 128.6462 0055074 264.6015  94.8871 14.12970694259755
UNKNOWN                 
1 81069U          20034.38798318  .00000930  00000+0  16097-2 0  9996
2 81069 100.3033 187.4943 0078714 194.8543 165.0273 13.45849706227050
UNKNOWN                 
1 81073U          20033.43928580 -.00002847  00000+0 -54061-2 0  9996
2 81073  61.7196  91.0416 4697944 156.2238 235.5611  5.82480511475162
UNKNOWN                 
1 81078U          20034.04815220  .00000487  00000+0  15947-1 0  9990
2 81078  65.1173  42.3381 0170357 109.6833 285.3251 11.21623790254574
UNKNOWN                 
1 81096U 83075    20014.03973377  .00001125  00000+0  94856-4 0  9997
2 81096  97.4156 317.5600 0197800 208.8315 150.1858 14.86243531285035
UNKNOWN                 
1 81111U          20034.17493600  .00074100  00000+0  17703-2 0  9992
2 81111  62.7566 333.7173 4793520 275.7262  33.6403  6.09502971125167
UNKNOWN                 
1 81114U          20032.31716935  .00026864  00000+0  61865-3 0  9991
2 81114  63.0188 247.7779 0022160  38.7245 321.5458 15.42292959303097
UNKNOWN                 
1 81122U          20027.50405598 -.00000199  00000+0 -70930-4 0  9994
2 81122  97.6298 120.9429 0286800 175.1788 185.2255 14.04853681272071
UNKNOWN                 
1 81123U 70025    20034.04776775  .00000023  00000+0  72709-4 0  9994
2 81123  99.9724 331.1710 0002132 162.6736 197.4486 13.77278738311447
UNKNOWN                 
1 81134U          20034.05961302  .00000077  00000+0  25854-3 0  9992
2 81134  90.3046 311.5764 0025558 226.0917 133.8090 12.92275008186207
UNKNOWN                 
1 81161U          20034.16950584  .00000202  00000+0  27908-3 0  9996
2 81161 100.4213  27.3926 0064317 273.3995  85.9793 13.71323211262609
UNKNOWN                 
1 81182U          20032.70008092  .00036048  00000+0  22857-2 0  9999
2 81182  51.3582 187.8248 1573255  54.9461 318.9031 12.20225344205592
UNKNOWN                 
1 81219U 81053    20033.63248322  .00000067  00000+0  50003-4 0  9990
2 81219  82.9296 169.2887 0023035 116.4476 243.9049 13.79530678312288
UNKNOWN                 
1 81221U          20034.04752551  .00000570  00000+0  28649-3 0  9995
2 81221  98.8331 326.0432 0118307  19.3201 341.2403 14.16834347220589
UNKNOWN                 
1 81228U          20034.02000544 -.00002411  00000+0 -10837-2 0  9995
2 81228  70.5315 277.5944 0093459 250.8286 108.2702 14.18921898321189
UNKNOWN                 
1 81241U          20033.15719883  .00000510  00000+0  26841-3 0  9995
2 81241  81.2275 201.6889 0037842 241.9590 117.7753 14.12375909171619
UNKNOWN                 
1 81247U 81053    20034.08411530  .00003346  00000+0  92717-3 0  9994
2 81247  83.2485 172.6119 0030272 113.8899 246.5475 14.46110344325892
UNKNOWN                 
1 81254U 70025    20033.31115210  .00002289  00000+0  18038-2 0  9998
2 81254 100.3745 162.4195 0074738 270.8435  88.4157 13.91687277314482
UNKNOWN                 
1 81264U          20032.47796404  .00000944  00000+0  20118-3 0  9990
2 81264  99.4233 273.6773 0105888 342.1209  17.6273 14.58499222296075
UNKNOWN                 
1 81279U          20033.89315802  .00000160  00000+0  82309-4 0  9993
2 81279  98.0968 253.4921 0224622 132.7164 229.3166 14.13541355159856
UNKNOWN                 
1 81301U          20033.15543590  .00000028  00000+0  10310-3 0  9990
2 81301  66.7610   0.6741 0095399 232.7622 139.3147 13.75339857311899
UNKNOWN                 
1 81311U 90105    20034.06193233  .00000060  00000+0  24798-4 0  9994
2 81311  98.6764 324.5432 0139391 151.9982 220.6498 14.52938471328648
UNKNOWN                 
1 81317U 80089    20033.49129937  .00000019  00000+0  13955-3 0  9992
2 81317  67.1362 203.9727 0212907  87.2279 308.5912 13.37051634302447
UNKNOWN                 
1 81323U          20033.48831789  .00000921  00000+0  21170-3 0  9998
2 81323  65.7790 319.0257 0511221 334.7132  22.9686 14.02154380810623
UNKNOWN                 
1 81329U          20033.48800716 -.00000346  00000+0 -88377-4 0  9996
2 81329  65.8265 292.9872 0884419 270.1620 274.7907 13.12578068334566
UNKNOWN                 
1 81338U          20034.18927878  .00016817  00000+0  10437-2 0  9991
2 81338  74.0232 316.4872 0020303 206.9051 153.1090 15.09519773240625
UNKNOWN                 
1 81342U          20033.88843698  .00000818  00000+0  50293-3 0  9998
2 81342  70.9006 101.6625 0167504 306.0852  52.4848 14.01870229316656
UNKNOWN                 
1 81343U          20033.56643666  .00000298  00000+0  31756-4 0  9993
2 81343  85.8769 237.8109 0008987 292.4775  67.5496 14.84894296135643
UNKNOWN                 
1 81357U          20034.21403140  .00001412  00000+0  14445-3 0  9996
2 81357  97.5361 319.1617 0203555 299.9799  58.1345 14.78050648217806
UNKNOWN                 
1 81358U          20028.49779613 -.00005615  00000-0 -72071+0 0  9998
2 81358  62.6434  61.1979 0370276 129.5311 233.8804  9.81670356    16
UNKNOWN                 
1 81359U          20033.92366278  .00000067  00000+0  13892-3 0  9995
2 81359  66.8004 111.1780 0126428 340.0023  19.6116 13.74930439311020
UNKNOWN                 
1 81361U          20034.00352403  .00030712  00000+0  94036-3 0  9992
2 81361  98.4579 212.2266 0013092 306.7806  53.2231 15.33691030333577
UNKNOWN                 
1 81366U          20034.48207785  .00000094  00000+0  67338-4 0  9997
2 81366  65.8846  59.8025 0741962  24.2870 339.1332 13.38783016779416
UNKNOWN                 
1 81371U          20031.22416093  .00000201  00000+0  53632-4 0  9998
2 81371  98.8093 311.4160 0089457  94.7282 266.4138 14.57321774328970
UNKNOWN                 
1 81374U          20034.07416771  .00000489  00000+0  20383-3 0  9994
2 81374  65.7314  68.7859 0048353 212.5740 147.2367 14.34551578275959
UNKNOWN                 
1 81380U          20033.60511590  .00001275  00000+0  44185-3 0  9994
2 81380  99.8565 172.3912 0005977 161.6645 198.4754 14.37782805309797
UNKNOWN                 
1 81386U          20032.19674470  .00000522  00000+0  26840-3 0  9992
2 81386  71.0547 213.3762 0122885 160.7212 199.8622 14.15937933319848
UNKNOWN                 
1 81390U          20033.97339931  .00000071  00000+0  93576-3 0  9993
2 81390 103.0960 115.6374 0175190 278.5693  79.5547 12.33904485708362
UNKNOWN                 
1 81391U          20031.99517298  .00000752  00000+0  34330-3 0  9997
2 81391  81.2092 291.7460 0014138 169.8980 190.2484 14.20670974276051
UNKNOWN                 
1 81392U          20034.36225442  .00000826  00000+0  10367-2 0  9994
2 81392 100.4201 174.4998 0040861   6.8465  20.6747 13.67333680308808
UNKNOWN                 
1 81402U          20034.00044265  .00001638  00000+0  71216-3 0  9992
2 81402  98.7542  51.8133 0006930 231.9658 128.0896 14.25479042140002
UNKNOWN                 
1 81405U          20034.15531295  .00000398  00000+0  36603-3 0  9998
2 81405  99.5265  22.3645 0170156 131.3247 230.2691 13.82402091265702
UNKNOWN                 
1 81406U          20031.34029650 -.00000404  00000+0 -13308-3 0  9991
2 81406  65.8114 253.3781 0893238 183.6908 175.7224 13.04517413253729
UNKNOWN                 
1 81409U 87068    20033.88286194  .00001464  00000+0  55620-3 0  9990
2 81409  82.6678 206.6221 0061355 109.2185 251.5654 14.29422616322356
UNKNOWN                 
1 81418U          20034.29166893  .00000438  00000+0  96126-3 0  9996
2 81418 100.3184 158.6826 0053359 335.3786  24.4792 13.34420686113423
UNKNOWN                 
1 81425U          20034.22694942  .00001193  00000+0  15030-2 0  9991
2 81425  99.4195 135.0035 0095500 212.0146 147.5173 13.64099067149402
UNKNOWN                 
1 81427U          20031.49913017 -.00000229  00000+0 -11507-3 0  9993
2 81427  98.8998 303.5285 0087359 270.2390  88.8766 14.03111120251089
UNKNOWN                 
1 81438U          20033.31941174  .00001518  00000+0  26210-2 0  9999
2 81438 100.2844 175.3952 0077828 214.7195 144.8840 13.44797652303506
UNKNOWN                 
1 81449U 85042    20034.25782243  .00000342  00000+0  14947-3 0  9993
2 81449  66.8071 329.7741 0060025 328.8963  30.8589 14.34213618323825
UNKNOWN                 
1 81478U          20032.79109062  .00000403  00000+0  20603-3 0  9999
2 81478  99.1350 239.3839 0173892 333.6978  83.1830 14.13807379319484
UNKNOWN                 
1 81488U 75052    20033.30330160 -.00000117  00000+0 -10008-3 0  9994
2 81488 100.0652 190.6043 0044637 252.1373 225.5609 13.55378767306588
UNKNOWN                 
1 81497U          20034.14250425  .00001083  00000+0  13680-2 0  9992
2 81497 100.3113 101.8729 0028318  15.7071  14.5962 13.66257051922861
UNKNOWN                 
1 81499U          20033.45840367  .00000345  00000+0  12789-3 0  9997
2 81499  74.0529 206.8546 0002694  68.7998 291.3442 14.35892683174500
UNKNOWN                 
1 81509U          20033.29857148  .00004412  00000+0  11307-2 0  9999
2 81509  98.8876 161.6396 0028414 275.0300  84.7649 14.50632629153206
UNKNOWN                 
1 81521U          20034.04571778  .00002261  00000+0  48716-3 0  9994
2 81521  99.7000  69.3260 0009933  74.2057 314.2725 14.59653524328224
